{
  "type": "FeatureCollection",
  "features": [
    {
      "type": "Feature",
      "properties": {
        "norad_id": 66795,
        "name": "STARLINK-36047",
        "group": "last-30-days",
        "lat": -42.965860461070534,
        "lon": 147.5176662211036,
        "alt_km": 328.29209505636936,
        "timestamp": "2025-12-14T20:40:30.516395+00:00",
        "meta_object_name": "STARLINK-36047",
        "meta_object_id": "2025-278E",
        "meta_epoch": "2025-12-14T06:00:02.999808",
        "meta_mean_motion": 15.83066927,
        "meta_eccentricity": 0.00018819,
        "meta_inclination": 42.9973,
        "meta_ra_of_asc_node": 242.8174,
        "meta_arg_of_pericenter": 271.5296,
        "meta_mean_anomaly": 110.3058,
        "meta_ephemeris_type": 0,
        "meta_classification_type": "U",
        "meta_norad_cat_id": 66795,
        "meta_element_set_no": 999,
        "meta_rev_at_epoch": 310,
        "meta_bstar": -0.0062777648,
        "meta_mean_motion_dot": -0.01232106,
        "meta_mean_motion_ddot": 0,
        "tle_line1": "1 66795U 25278E   25348.25003472 -.01232106  00000+0 -62778-2 0  9990",
        "tle_line2": "2 66795  42.9973 242.8174 0001881 271.5296 110.3058 15.83066927  3106"
      },
      "geometry": {
        "type": "Point",
        "coordinates": [
          147.5176662211036,
          -42.965860461070534
        ]
      }
    },
    {
      "type": "Feature",
      "properties": {
        "norad_id": 66796,
        "name": "STARLINK-35964",
        "group": "last-30-days",
        "lat": -27.617781420993254,
        "lon": -156.13484226834848,
        "alt_km": 297.86666130195044,
        "timestamp": "2025-12-14T20:40:30.516405+00:00",
        "meta_object_name": "STARLINK-35964",
        "meta_object_id": "2025-278F",
        "meta_epoch": "2025-12-14T06:00:02.999808",
        "meta_mean_motion": 15.94725878,
        "meta_eccentricity": 0.00018116,
        "meta_inclination": 42.9942,
        "meta_ra_of_asc_node": 241.8418,
        "meta_arg_of_pericenter": 275.6166,
        "meta_mean_anomaly": 130.0142,
        "meta_ephemeris_type": 0,
        "meta_classification_type": "U",
        "meta_norad_cat_id": 66796,
        "meta_element_set_no": 999,
        "meta_rev_at_epoch": 304,
        "meta_bstar": -0.0059120362,
        "meta_mean_motion_dot": -0.02328868,
        "meta_mean_motion_ddot": 0.001482682,
        "tle_line1": "1 66796U 25278F   25348.25003472 -.02328868  14827-2 -59120-2 0  9995",
        "tle_line2": "2 66796  42.9942 241.8418 0001811 275.6166 130.0142 15.94725878  3042"
      },
      "geometry": {
        "type": "Point",
        "coordinates": [
          -156.13484226834848,
          -27.617781420993254
        ]
      }
    },
    {
      "type": "Feature",
      "properties": {
        "norad_id": 66797,
        "name": "STARLINK-36099",
        "group": "last-30-days",
        "lat": -42.843552810283924,
        "lon": 154.57112509916294,
        "alt_km": 328.5661397019421,
        "timestamp": "2025-12-14T20:40:30.516418+00:00",
        "meta_object_name": "STARLINK-36099",
        "meta_object_id": "2025-278G",
        "meta_epoch": "2025-12-14T06:00:02.999808",
        "meta_mean_motion": 15.82987887,
        "meta_eccentricity": 0.00019257,
        "meta_inclination": 42.9972,
        "meta_ra_of_asc_node": 242.8037,
        "meta_arg_of_pericenter": 273.955,
        "meta_mean_anomaly": 113.2769,
        "meta_ephemeris_type": 0,
        "meta_classification_type": "U",
        "meta_norad_cat_id": 66797,
        "meta_element_set_no": 999,
        "meta_rev_at_epoch": 326,
        "meta_bstar": -0.0064377116,
        "meta_mean_motion_dot": -0.01255676,
        "meta_mean_motion_ddot": 0,
        "tle_line1": "1 66797U 25278G   25348.25003472 -.01255676  00000+0 -64377-2 0  9996",
        "tle_line2": "2 66797  42.9972 242.8037 0001925 273.9550 113.2769 15.82987887  3267"
      },
      "geometry": {
        "type": "Point",
        "coordinates": [
          154.57112509916294,
          -42.843552810283924
        ]
      }
    },
    {
      "type": "Feature",
      "properties": {
        "norad_id": 66798,
        "name": "STARLINK-36041",
        "group": "last-30-days",
        "lat": -42.6687282994831,
        "lon": 157.43912549021172,
        "alt_km": 328.58834553676024,
        "timestamp": "2025-12-14T20:40:30.516428+00:00",
        "meta_object_name": "STARLINK-36041",
        "meta_object_id": "2025-278H",
        "meta_epoch": "2025-12-14T06:00:02.999808",
        "meta_mean_motion": 15.82985857,
        "meta_eccentricity": 0.00019274,
        "meta_inclination": 42.9971,
        "meta_ra_of_asc_node": 242.7983,
        "meta_arg_of_pericenter": 275.9987,
        "meta_mean_anomaly": 113.3683,
        "meta_ephemeris_type": 0,
        "meta_classification_type": "U",
        "meta_norad_cat_id": 66798,
        "meta_element_set_no": 999,
        "meta_rev_at_epoch": 304,
        "meta_bstar": -0.0064744785,
        "meta_mean_motion_dot": -0.01261904,
        "meta_mean_motion_ddot": 0,
        "tle_line1": "1 66798U 25278H   25348.25003472 -.01261904  00000+0 -64745-2 0  9997",
        "tle_line2": "2 66798  42.9971 242.7983 0001927 275.9987 113.3683 15.82985857  3041"
      },
      "geometry": {
        "type": "Point",
        "coordinates": [
          157.43912549021172,
          -42.6687282994831
        ]
      }
    },
    {
      "type": "Feature",
      "properties": {
        "norad_id": 66799,
        "name": "STARLINK-36044",
        "group": "last-30-days",
        "lat": -42.399889545878864,
        "lon": 160.51300796506882,
        "alt_km": 328.61376423378806,
        "timestamp": "2025-12-14T20:40:30.516437+00:00",
        "meta_object_name": "STARLINK-36044",
        "meta_object_id": "2025-278J",
        "meta_epoch": "2025-12-14T06:00:02.999808",
        "meta_mean_motion": 15.82963927,
        "meta_eccentricity": 0.00019672,
        "meta_inclination": 42.9969,
        "meta_ra_of_asc_node": 242.7925,
        "meta_arg_of_pericenter": 275.6306,
        "meta_mean_anomaly": 116.0746,
        "meta_ephemeris_type": 0,
        "meta_classification_type": "U",
        "meta_norad_cat_id": 66799,
        "meta_element_set_no": 999,
        "meta_rev_at_epoch": 320,
        "meta_bstar": -0.0064896767,
        "meta_mean_motion_dot": -0.01263376,
        "meta_mean_motion_ddot": 0,
        "tle_line1": "1 66799U 25278J   25348.25003472 -.01263376  00000+0 -64897-2 0  9991",
        "tle_line2": "2 66799  42.9969 242.7925 0001967 275.6306 116.0746 15.82963927  3203"
      },
      "geometry": {
        "type": "Point",
        "coordinates": [
          160.51300796506882,
          -42.399889545878864
        ]
      }
    },
    {
      "type": "Feature",
      "properties": {
        "norad_id": 66800,
        "name": "STARLINK-35996",
        "group": "last-30-days",
        "lat": -41.624008340527375,
        "lon": 166.53490181080298,
        "alt_km": 328.82066482166556,
        "timestamp": "2025-12-14T20:40:30.516447+00:00",
        "meta_object_name": "STARLINK-35996",
        "meta_object_id": "2025-278K",
        "meta_epoch": "2025-12-14T06:00:02.999808",
        "meta_mean_motion": 15.82931925,
        "meta_eccentricity": 0.0001856,
        "meta_inclination": 42.997,
        "meta_ra_of_asc_node": 242.7804,
        "meta_arg_of_pericenter": 273.5207,
        "meta_mean_anomaly": 122.8347,
        "meta_ephemeris_type": 0,
        "meta_classification_type": "U",
        "meta_norad_cat_id": 66800,
        "meta_element_set_no": 999,
        "meta_rev_at_epoch": 299,
        "meta_bstar": -0.006594931,
        "meta_mean_motion_dot": -0.01279634,
        "meta_mean_motion_ddot": 0,
        "tle_line1": "1 66800U 25278K   25348.25003472 -.01279634  00000+0 -65949-2 0  9997",
        "tle_line2": "2 66800  42.9970 242.7804 0001856 273.5207 122.8347 15.82931925  2998"
      },
      "geometry": {
        "type": "Point",
        "coordinates": [
          166.53490181080298,
          -41.624008340527375
        ]
      }
    },
    {
      "type": "Feature",
      "properties": {
        "norad_id": 66801,
        "name": "STARLINK-36080",
        "group": "last-30-days",
        "lat": -38.40678970136732,
        "lon": -179.3040642499313,
        "alt_km": 329.0106417107427,
        "timestamp": "2025-12-14T20:40:30.516457+00:00",
        "meta_object_name": "STARLINK-36080",
        "meta_object_id": "2025-278L",
        "meta_epoch": "2025-12-14T06:00:02.999808",
        "meta_mean_motion": 15.82850058,
        "meta_eccentricity": 0.00019314,
        "meta_inclination": 42.9971,
        "meta_ra_of_asc_node": 242.7506,
        "meta_arg_of_pericenter": 280.3023,
        "meta_mean_anomaly": 127.6263,
        "meta_ephemeris_type": 0,
        "meta_classification_type": "U",
        "meta_norad_cat_id": 66801,
        "meta_element_set_no": 999,
        "meta_rev_at_epoch": 320,
        "meta_bstar": -0.006828343,
        "meta_mean_motion_dot": -0.01314895,
        "meta_mean_motion_ddot": 0,
        "tle_line1": "1 66801U 25278L   25348.25003472 -.01314895  00000+0 -68283-2 0  9991",
        "tle_line2": "2 66801  42.9971 242.7506 0001931 280.3023 127.6263 15.82850058  3207"
      },
      "geometry": {
        "type": "Point",
        "coordinates": [
          -179.3040642499313,
          -38.40678970136732
        ]
      }
    }
  ]
}